[{"OBJECT_NAME":"STARLINK-5053","OBJECT_ID":"2022-119AD","EPOCH":"2026-03-09T22:41:00.447648","MEAN_MOTION":15.08839492,"ECCENTRICITY":0.0001317,"INCLINATION":53.2186,"RA_OF_ASC_NODE":312.9563,"ARG_OF_PERICENTER":100.9237,"MEAN_ANOMALY":259.1903,"EPHEMERIS_TYPE":0,"CLASSIFICATION_TYPE":"U","NORAD_CAT_ID":53913,"ELEMENT_SET_NO":999,"REV_AT_EPOCH":19186,"BSTAR":-1.0001456e-5,"MEAN_MOTION_DOT":-4.47e-6,"MEAN_MOTION_DDOT":0},{"OBJECT_NAME":"DISKSAT C","OBJECT_ID":"2025-305A","EPOCH":"2026-03-09T19:16:32.318976","MEAN_MOTION":15.07852977,"ECCENTRICITY":0.00045341,"INCLINATION":45.0017,"RA_OF_ASC_NODE":250.1278,"ARG_OF_PERICENTER":310.7706,"MEAN_ANOMALY":49.2776,"EPHEMERIS_TYPE":0,"CLASSIFICATION_TYPE":"U","NORAD_CAT_ID":67219,"ELEMENT_SET_NO":999,"REV_AT_EPOCH":1231,"BSTAR":0.00075564202,"MEAN_MOTION_DOT":0.00011541,"MEAN_MOTION_DDOT":0}]
